{"type": "FeatureCollection", "features": [{"type": "Feature", "properties": {"norad_id": 25590, "name": "COSMOS 2361", "group": "musson", "lat": 25.059218418962338, "lon": -10.869242283596726, "alt_km": 995.8085337206976, "timestamp": "2025-12-10T09:57:44.969034+00:00", "meta": {"OBJECT_NAME": "COSMOS 2361", "OBJECT_ID": "1998-076A", "EPOCH": "2025-12-09T18:56:43.982016", "MEAN_MOTION": 13.73217061, "ECCENTRICITY": 0.0030059, "INCLINATION": 82.9338, "RA_OF_ASC_NODE": 346.2687, "ARG_OF_PERICENTER": 274.1725, "MEAN_ANOMALY": 259.3866, "EPHEMERIS_TYPE": 0, "CLASSIFICATION_TYPE": "U", "NORAD_CAT_ID": 25590, "ELEMENT_SET_NO": 999, "REV_AT_EPOCH": 35070, "BSTAR": 9.2375e-05, "MEAN_MOTION_DOT": 1.01e-06, "MEAN_MOTION_DDOT": 0}, "tle": {"line1": "1 25590U 98076A   25343.78939794  .00000101  00000+0  92375-4 0  9995", "line2": "2 25590  82.9338 346.2687 0030059 274.1725 259.3866 13.73217061350702"}}, "geometry": {"type": "Point", "coordinates": [-10.869242283596726, 25.059218418962338]}}, {"type": "Feature", "properties": {"norad_id": 26818, "name": "COSMOS 2378", "group": "musson", "lat": 82.91359701784408, "lon": 88.47690454584699, "alt_km": 989.7515333478359, "timestamp": "2025-12-10T09:57:44.969055+00:00", "meta": {"OBJECT_NAME": "COSMOS 2378", "OBJECT_ID": "2001-023A", "EPOCH": "2025-12-10T04:37:33.598272", "MEAN_MOTION": 13.74141691, "ECCENTRICITY": 0.0032263, "INCLINATION": 82.9273, "RA_OF_ASC_NODE": 1.6136, "ARG_OF_PERICENTER": 212.0946, "MEAN_ANOMALY": 218.5089, "EPHEMERIS_TYPE": 0, "CLASSIFICATION_TYPE": "U", "NORAD_CAT_ID": 26818, "ELEMENT_SET_NO": 999, "REV_AT_EPOCH": 22888, "BSTAR": 5.555e-05, "MEAN_MOTION_DOT": 6.7e-07, "MEAN_MOTION_DDOT": 0}, "tle": {"line1": "1 26818U 01023A   25344.19274998  .00000067  00000+0  55550-4 0  9994", "line2": "2 26818  82.9273   1.6136 0032263 212.0946 218.5089 13.74141691228883"}}, "geometry": {"type": "Point", "coordinates": [88.47690454584699, 82.91359701784408]}}, {"type": "Feature", "properties": {"norad_id": 27436, "name": "COSMOS 2389", "group": "musson", "lat": -70.70185209874829, "lon": -71.98963866422598, "alt_km": 1014.8292631750055, "timestamp": "2025-12-10T09:57:44.969069+00:00", "meta": {"OBJECT_NAME": "COSMOS 2389", "OBJECT_ID": "2002-026A", "EPOCH": "2025-12-09T20:27:51.412032", "MEAN_MOTION": 13.75154194, "ECCENTRICITY": 0.004768, "INCLINATION": 82.95, "RA_OF_ASC_NODE": 309.122, "ARG_OF_PERICENTER": 68.5853, "MEAN_ANOMALY": 317.0736, "EPHEMERIS_TYPE": 0, "CLASSIFICATION_TYPE": "U", "NORAD_CAT_ID": 27436, "ELEMENT_SET_NO": 999, "REV_AT_EPOCH": 18109, "BSTAR": 9.4732e-05, "MEAN_MOTION_DOT": 1.07e-06, "MEAN_MOTION_DDOT": 0}, "tle": {"line1": "1 27436U 02026A   25343.85267838  .00000107  00000+0  94732-4 0  9992", "line2": "2 27436  82.9500 309.1220 0047680  68.5853 317.0736 13.75154194181091"}}, "geometry": {"type": "Point", "coordinates": [-71.98963866422598, -70.70185209874829]}}, {"type": "Feature", "properties": {"norad_id": 27818, "name": "COSMOS 2398", "group": "musson", "lat": -81.02335981994483, "lon": 145.99773503254661, "alt_km": 1018.33218261396, "timestamp": "2025-12-10T09:57:44.969081+00:00", "meta": {"OBJECT_NAME": "COSMOS 2398", "OBJECT_ID": "2003-023A", "EPOCH": "2025-12-10T04:00:14.728032", "MEAN_MOTION": 13.72385286, "ECCENTRICITY": 0.0032496, "INCLINATION": 82.9484, "RA_OF_ASC_NODE": 274.5942, "ARG_OF_PERICENTER": 118.6771, "MEAN_ANOMALY": 359.6474, "EPHEMERIS_TYPE": 0, "CLASSIFICATION_TYPE": "U", "NORAD_CAT_ID": 27818, "ELEMENT_SET_NO": 999, "REV_AT_EPOCH": 12781, "BSTAR": 9.1835e-05, "MEAN_MOTION_DOT": 1e-06, "MEAN_MOTION_DDOT": 0}, "tle": {"line1": "1 27818U 03023A   25344.16683713  .00000100  00000+0  91835-4 0  9997", "line2": "2 27818  82.9484 274.5942 0032496 118.6771 359.6474 13.72385286127813"}}, "geometry": {"type": "Point", "coordinates": [145.99773503254661, -81.02335981994483]}}, {"type": "Feature", "properties": {"norad_id": 28380, "name": "COSMOS 2407", "group": "musson", "lat": 66.12553842580407, "lon": -129.17713664630026, "alt_km": 940.9886348289338, "timestamp": "2025-12-10T09:57:44.969092+00:00", "meta": {"OBJECT_NAME": "COSMOS 2407", "OBJECT_ID": "2004-028A", "EPOCH": "2025-12-10T03:17:29.866272", "MEAN_MOTION": 13.76313261, "ECCENTRICITY": 0.0040411, "INCLINATION": 82.961, "RA_OF_ASC_NODE": 214.8195, "ARG_OF_PERICENTER": 61.9048, "MEAN_ANOMALY": 68.8154, "EPHEMERIS_TYPE": 0, "CLASSIFICATION_TYPE": "U", "NORAD_CAT_ID": 28380, "ELEMENT_SET_NO": 999, "REV_AT_EPOCH": 7387, "BSTAR": 7.3975e-05, "MEAN_MOTION_DOT": 8.8e-07, "MEAN_MOTION_DDOT": 0}, "tle": {"line1": "1 28380U 04028A   25344.13715123  .00000088  00000+0  73975-4 0  9996", "line2": "2 28380  82.9610 214.8195 0040411  61.9048  68.8154 13.76313261 73877"}}, "geometry": {"type": "Point", "coordinates": [-129.17713664630026, 66.12553842580407]}}, {"type": "Feature", "properties": {"norad_id": 28521, "name": "COSMOS 2414", "group": "musson", "lat": -53.65391585664201, "lon": 16.100486860135398, "alt_km": 941.8140185322118, "timestamp": "2025-12-10T09:57:44.969102+00:00", "meta": {"OBJECT_NAME": "COSMOS 2414", "OBJECT_ID": "2005-002A", "EPOCH": "2025-12-10T01:55:12.551232", "MEAN_MOTION": 13.87902448, "ECCENTRICITY": 0.0040736, "INCLINATION": 82.9494, "RA_OF_ASC_NODE": 186.6712, "ARG_OF_PERICENTER": 147.1554, "MEAN_ANOMALY": 213.2153, "EPHEMERIS_TYPE": 0, "CLASSIFICATION_TYPE": "U", "NORAD_CAT_ID": 28521, "ELEMENT_SET_NO": 999, "REV_AT_EPOCH": 5758, "BSTAR": 6.9299e-05, "MEAN_MOTION_DOT": 9.9e-07, "MEAN_MOTION_DDOT": 0}, "tle": {"line1": "1 28521U 05002A   25344.08000638  .00000099  00000+0  69299-4 0  9994", "line2": "2 28521  82.9494 186.6712 0040736 147.1554 213.2153 13.87902448 57582"}}, "geometry": {"type": "Point", "coordinates": [16.100486860135398, -53.65391585664201]}}, {"type": "Feature", "properties": {"norad_id": 32052, "name": "COSMOS 2429", "group": "musson", "lat": 64.30343700680228, "lon": 150.18707865852505, "alt_km": 965.1445967769432, "timestamp": "2025-12-10T09:57:44.969113+00:00", "meta": {"OBJECT_NAME": "COSMOS 2429", "OBJECT_ID": "2007-038A", "EPOCH": "2025-12-09T10:42:32.023872", "MEAN_MOTION": 13.75148904, "ECCENTRICITY": 0.00393967, "INCLINATION": 82.9802, "RA_OF_ASC_NODE": 345.737, "ARG_OF_PERICENTER": 46.8383, "MEAN_ANOMALY": 313.6055, "EPHEMERIS_TYPE": 0, "CLASSIFICATION_TYPE": "U", "NORAD_CAT_ID": 32052, "ELEMENT_SET_NO": 999, "REV_AT_EPOCH": 91557, "BSTAR": 7.3832477e-05, "MEAN_MOTION_DOT": 8.6e-07, "MEAN_MOTION_DDOT": 0}, "tle": {"line1": "1 32052U 07038A   25343.44620398  .00000086  00000+0  73832-4 0  9993", "line2": "2 32052  82.9802 345.7370 0039396  46.8383 313.6055 13.75148904915576"}}, "geometry": {"type": "Point", "coordinates": [150.18707865852505, 64.30343700680228]}}, {"type": "Feature", "properties": {"norad_id": 35635, "name": "COSMOS 2454", "group": "musson", "lat": -82.32767395483157, "lon": 57.025795984909564, "alt_km": 951.1193497533877, "timestamp": "2025-12-10T09:57:44.969123+00:00", "meta": {"OBJECT_NAME": "COSMOS 2454", "OBJECT_ID": "2009-039A", "EPOCH": "2025-12-10T00:48:50.279328", "MEAN_MOTION": 13.89928013, "ECCENTRICITY": 0.002048, "INCLINATION": 82.9554, "RA_OF_ASC_NODE": 170.6962, "ARG_OF_PERICENTER": 80.9665, "MEAN_ANOMALY": 79.7408, "EPHEMERIS_TYPE": 0, "CLASSIFICATION_TYPE": "U", "NORAD_CAT_ID": 35635, "ELEMENT_SET_NO": 999, "REV_AT_EPOCH": 83112, "BSTAR": 5.7382e-05, "MEAN_MOTION_DOT": 8.7e-07, "MEAN_MOTION_DDOT": 0}, "tle": {"line1": "1 35635U 09039A   25344.03391527  .00000087  00000+0  57382-4 0  9994", "line2": "2 35635  82.9554 170.6962 0020480  80.9665  79.7408 13.89928013831120"}}, "geometry": {"type": "Point", "coordinates": [57.025795984909564, -82.32767395483157]}}, {"type": "Feature", "properties": {"norad_id": 36519, "name": "COSMOS 2463", "group": "musson", "lat": 77.69434987853934, "lon": 173.92521981852857, "alt_km": 1011.2419437170238, "timestamp": "2025-12-10T09:57:44.969133+00:00", "meta": {"OBJECT_NAME": "COSMOS 2463", "OBJECT_ID": "2010-017A", "EPOCH": "2025-12-10T04:30:43.905888", "MEAN_MOTION": 13.71648905, "ECCENTRICITY": 0.0034841, "INCLINATION": 82.9615, "RA_OF_ASC_NODE": 28.5878, "ARG_OF_PERICENTER": 295.396, "MEAN_ANOMALY": 123.8475, "EPHEMERIS_TYPE": 0, "CLASSIFICATION_TYPE": "U", "NORAD_CAT_ID": 36519, "ELEMENT_SET_NO": 999, "REV_AT_EPOCH": 78202, "BSTAR": 6.2693e-05, "MEAN_MOTION_DOT": 7.1e-07, "MEAN_MOTION_DDOT": 0}, "tle": {"line1": "1 36519U 10017A   25344.18800817  .00000071  00000+0  62693-4 0  9991", "line2": "2 36519  82.9615  28.5878 0034841 295.3960 123.8475 13.71648905782022"}}, "geometry": {"type": "Point", "coordinates": [173.92521981852857, 77.69434987853934]}}]}